[{"OBJECT_NAME":"STARLINK-4501","OBJECT_ID":"2022-101AC","EPOCH":"2026-03-09T09:27:25.963200","MEAN_MOTION":15.08839409,"ECCENTRICITY":0.00013498,"INCLINATION":53.2178,"RA_OF_ASC_NODE":65.3219,"ARG_OF_PERICENTER":87.4741,"MEAN_ANOMALY":272.6406,"EPHEMERIS_TYPE":0,"CLASSIFICATION_TYPE":"U","NORAD_CAT_ID":53553,"ELEMENT_SET_NO":999,"REV_AT_EPOCH":19692,"BSTAR":-9.121516e-6,"MEAN_MOTION_DOT":-4.33e-6,"MEAN_MOTION_DDOT":0},{"OBJECT_NAME":"OBJECT K","OBJECT_ID":"2017-042K","EPOCH":"2026-03-09T21:28:20.621568","MEAN_MOTION":15.07994228,"ECCENTRICITY":0.00097557,"INCLINATION":97.4104,"RA_OF_ASC_NODE":233.8721,"ARG_OF_PERICENTER":49.2775,"MEAN_ANOMALY":310.9299,"EPHEMERIS_TYPE":0,"CLASSIFICATION_TYPE":"U","NORAD_CAT_ID":42834,"ELEMENT_SET_NO":999,"REV_AT_EPOCH":47201,"BSTAR":0.00042776846,"MEAN_MOTION_DOT":6.528e-5,"MEAN_MOTION_DDOT":0}]
